OBJECT_NAME,OBJECT_ID,EPOCH,MEAN_MOTION,ECCENTRICITY,INCLINATION,RA_OF_ASC_NODE,ARG_OF_PERICENTER,MEAN_ANOMALY,EPHEMERIS_TYPE,CLASSIFICATION_TYPE,NORAD_CAT_ID,ELEMENT_SET_NO,REV_AT_EPOCH,BSTAR,MEAN_MOTION_DOT,MEAN_MOTION_DDOT
GSAT0216 (GALILEO 20),2017-079B,2026-07-14T06:56:45.569184,1.70474452,.00048858,55.0681,220.7605,277.2528,82.7589,0,U,43056,999,5346,0,.67E-6,0
GSAT0217 (GALILEO 21),2017-079C,2026-07-13T22:10:03.005760,1.70474255,.00051779,55.0663,220.7682,287.6925,72.3210,0,U,43057,999,5344,0,.71E-6,0
GSAT0218 (GALILEO 22),2017-079D,2026-07-14T03:26:57.361344,1.70474358,.00054033,55.0664,220.7598,274.9614,85.0453,0,U,43058,999,5347,0,.68E-6,0
BEIDOU-3 M7 (C27),2018-003A,2026-07-13T02:59:29.302944,1.86228081,.00044252,54.3034,301.4109,99.0541,261.0198,0,U,43107,999,5783,0,-.66E-6,0
BEIDOU-3 M8 (C28),2018-003B,2026-07-14T03:25:48.314784,1.86230956,.00030547,54.2952,301.3566,257.2300,102.7635,0,U,43108,999,5786,0,-.67E-6,0
BEIDOU-3 M4 (C22),2018-018A,2026-07-14T01:10:47.823168,1.86230755,.00074456,56.6746,62.2635,28.6093,331.5057,0,U,43207,999,5724,0,-.38E-6,0
BEIDOU-3 M3 (C21),2018-018B,2026-07-14T02:46:33.176064,1.86230766,.0007581,56.6739,62.2646,347.4749,12.5805,0,U,43208,999,5724,0,-.38E-6,0
BEIDOU-3 M9 (C29),2018-029A,2026-07-14T08:00:26.559072,1.86227870,.00012365,54.1675,298.9986,187.3559,172.6749,0,U,43245,999,5640,0,-.63E-6,0
BEIDOU-3 M10 (C30),2018-029B,2026-07-14T06:25:42.900096,1.86229100,.0003254,54.1653,299.0279,37.5174,322.5374,0,U,43246,999,5638,0,-.63E-6,0
IRNSS-1I,2018-035A,2026-07-15T00:25:20.429184,1.00271572,.0018506,28.8178,73.7623,178.3910,102.1108,0,U,43286,999,3035,0,.56E-6,0
COSMOS 2527 (756),2018-053A,2026-07-14T07:14:45.547584,2.13102086,.00064133,65.5923,73.0036,229.6749,130.3442,0,U,43508,999,6285,0,-.8E-7,0
BEIDOU-2 IGSO-7 (C16),2018-057A,2026-07-01T21:23:21.693984,1.00246939,.01049468,55.1981,162.9292,237.8611,308.6338,0,U,43539,999,2927,0,-.33E-6,0
GSAT0221 (GALILEO 25),2018-060A,2026-07-14T01:08:49.778304,1.70476069,.00026631,57.1598,341.0559,285.3829,74.5732,0,U,43564,999,4962,0,-.96E-6,0
GSAT0222 (GALILEO 26),2018-060B,2026-07-13T16:20:30.695712,1.70475786,.00027814,57.1635,341.0695,235.2693,124.6907,0,U,43565,999,4966,0,-.95E-6,0
GSAT0219 (GALILEO 23),2018-060C,2026-07-13T07:33:51.996096,1.70476015,.00018106,57.1630,341.0808,299.7576,60.2111,0,U,43566,999,4963,0,-.93E-6,0
GSAT0220 (GALILEO 24),2018-060D,2026-07-13T12:52:06.984480,1.70475652,.00021293,57.1625,341.0748,291.2422,68.7213,0,U,43567,999,4962,0,-.94E-6,0
BEIDOU-3 M5 (C23),2018-062A,2026-07-15T00:41:20.188032,1.86228782,.0005688,54.0864,181.3577,292.4069,67.5068,0,U,43581,999,5415,0,.41E-6,0
BEIDOU-3 M6 (C24),2018-062B,2026-07-14T08:31:42.591648,1.86227860,.00052328,54.0858,181.3698,9.8784,350.1097,0,U,43582,999,5414,0,.47E-6,0
BEIDOU-3 M12 (C26),2018-067A,2026-07-14T07:03:03.527712,1.86227611,.00079056,54.1815,180.1212,30.2699,329.7517,0,U,43602,999,5362,0,.46E-6,0
BEIDOU-3 M11 (C25),2018-067B,2026-07-14T23:10:52.582368,1.86227040,.0004617,54.1789,180.0620,13.0356,346.9483,0,U,43603,999,5366,0,.41E-6,0
BEIDOU-3 M13 (C32),2018-072A,2026-07-13T20:19:15.504672,1.86231187,.00062359,56.6475,61.7808,333.7731,26.2691,0,U,43622,999,5315,0,-.39E-6,0
BEIDOU-3 M14 (C33),2018-072B,2026-07-14T05:58:41.454624,1.86231229,.00055358,56.6499,61.7618,10.9720,349.1146,0,U,43623,999,5315,0,-.39E-6,0
BEIDOU-3 M16 (C35),2018-078A,2026-07-13T07:55:22.901088,1.86232180,.00066502,54.0645,299.0691,39.9150,320.1624,0,U,43647,999,5264,0,-.62E-6,0
BEIDOU-3 M15 (C34),2018-078B,2026-07-13T23:54:44.063712,1.86232312,.00035359,54.0596,299.0458,57.7784,302.2870,0,U,43648,999,5267,0,-.63E-6,0
BEIDOU-3 G1 (C59),2018-085A,2026-07-15T03:51:57.431232,1.00272490,.0008007,2.9363,96.6113,356.5341,57.8180,0,U,43683,999,2834,0,-.12E-5,0
COSMOS 2529 (757),2018-086A,2026-07-11T02:43:12.569952,2.13101972,.00121111,64.2969,191.7864,256.4030,103.4921,0,U,43687,999,5979,0,.113E-5,0
BEIDOU-3 M17 (C36),2018-093A,2026-07-15T00:24:33.519168,1.86228287,.0010121,54.1700,181.3521,294.3238,281.3970,0,U,43706,999,5205,0,.41E-6,0
BEIDOU-3 M18 (C37),2018-093B,2026-07-15T02:17:52.989216,1.86226638,.0008074,54.1708,181.3419,322.6097,37.3076,0,U,43707,999,5205,0,.41E-6,0
GPS BIII-1  (PRN 04),2018-109A,2026-07-15T04:11:31.635744,2.00562740,.0038566,55.6985,91.0822,197.1440,334.8640,0,U,43873,999,5563,0,-.23E-6,0
BEIDOU-3 IGSO-1 (C38),2019-023A,2026-07-13T11:51:18.021312,1.00283496,.00257348,58.7323,37.3789,224.1077,326.8166,0,U,44204,999,747,0,-.204E-5,0
BEIDOU-2 G8 (C01),2019-027A,2026-07-15T05:30:04.982976,1.00271680,.0009699,1.7265,74.4846,282.0905,163.5493,0,U,44231,999,2636,0,-.258E-5,0
